[{"OBJECT_NAME":"STARLINK-6292","OBJECT_ID":"2023-078J","EPOCH":"2026-03-09T21:29:43.429056","MEAN_MOTION":14.98278828,"ECCENTRICITY":0.00027903,"INCLINATION":69.9997,"RA_OF_ASC_NODE":304.0816,"ARG_OF_PERICENTER":269.9247,"MEAN_ANOMALY":90.1592,"EPHEMERIS_TYPE":0,"CLASSIFICATION_TYPE":"U","NORAD_CAT_ID":56775,"ELEMENT_SET_NO":999,"REV_AT_EPOCH":15369,"BSTAR":-0.00060460308,"MEAN_MOTION_DOT":-7.29e-5,"MEAN_MOTION_DDOT":0},{"OBJECT_NAME":"PSLV DEB","OBJECT_ID":"2001-049NQ","EPOCH":"2026-03-09T02:43:10.058304","MEAN_MOTION":14.89489046,"ECCENTRICITY":0.00529867,"INCLINATION":98.0964,"RA_OF_ASC_NODE":127.0334,"ARG_OF_PERICENTER":97.8554,"MEAN_ANOMALY":262.8682,"EPHEMERIS_TYPE":0,"CLASSIFICATION_TYPE":"U","NORAD_CAT_ID":27653,"ELEMENT_SET_NO":999,"REV_AT_EPOCH":27440,"BSTAR":0.00043563035,"MEAN_MOTION_DOT":4.198e-5,"MEAN_MOTION_DDOT":0}]
